[{"OBJECT_NAME":"STARLINK-32144","OBJECT_ID":"2024-131Q","EPOCH":"2026-03-09T09:29:05.864928","MEAN_MOTION":15.30191179,"ECCENTRICITY":0.00011415,"INCLINATION":53.1601,"RA_OF_ASC_NODE":53.7883,"ARG_OF_PERICENTER":96.8101,"MEAN_ANOMALY":263.303,"EPHEMERIS_TYPE":0,"CLASSIFICATION_TYPE":"U","NORAD_CAT_ID":60269,"ELEMENT_SET_NO":999,"REV_AT_EPOCH":9172,"BSTAR":-1.0181405e-5,"MEAN_MOTION_DOT":-6.6e-6,"MEAN_MOTION_DDOT":0},{"OBJECT_NAME":"TEVEL2-6","OBJECT_ID":"2025-052F","EPOCH":"2026-03-09T15:35:24.554400","MEAN_MOTION":15.30760889,"ECCENTRICITY":0.0004769,"INCLINATION":97.4016,"RA_OF_ASC_NODE":325.0381,"ARG_OF_PERICENTER":95.6604,"MEAN_ANOMALY":264.5181,"EPHEMERIS_TYPE":0,"CLASSIFICATION_TYPE":"U","NORAD_CAT_ID":63215,"ELEMENT_SET_NO":999,"REV_AT_EPOCH":5486,"BSTAR":0.00070909,"MEAN_MOTION_DOT":0.00021046,"MEAN_MOTION_DDOT":0}]
