STARLINK-32144          
1 60269U 24131Q   26068.39520677 -.00000660  00000+0 -10181-4 0  9993
2 60269  53.1601  53.7883 0001141  96.8101 263.3030 15.30191179 91720
TEVEL2-6                
1 63215U 25052F   26068.64958975  .00021046  00000+0  70909-3 0  9996
2 63215  97.4016 325.0381 0004769  95.6604 264.5181 15.30760889 54861
